{"type":"FeatureCollection","source":"GeoSampa WFS geoportal:risco_ocorrencia_alagamento (Defesa Civil / SIGRC), fetched 2026-08-28, EPSG:4326","features":[{"type":"Feature","geometry":{"type":"Point","coordinates":[-46.5368208,-23.60621642]},"properties":{"date":"2026-04-01Z","kind":"ALAGAMENTO","subprefecture":"VP - VILA PRUDENTE"}},{"type":"Feature","geometry":{"type":"Point","coordinates":[-46.5301669,-23.61379432]},"properties":{"date":"2026-04-02Z","kind":"ALAGAMENTO","subprefecture":"VP - VILA PRUDENTE"}},{"type":"Feature","geometry":{"type":"Point","coordinates":[-46.7458079,-23.57281682]},"properties":{"date":"2026-04-07Z","kind":"ALAGAMENTO","subprefecture":"BT - BUTANTA"}},{"type":"Feature","geometry":{"type":"Point","coordinates":[-46.5570526,-23.53937412]},"properties":{"date":"2026-04-14Z","kind":"ALAGAMENTO","subprefecture":"AF - ARICANDUVA/VILA FORMOSA"}},{"type":"Feature","geometry":{"type":"Point","coordinates":[-46.5513291,-23.53742072]},"properties":{"date":"2026-04-15Z","kind":"ALAGAMENTO","subprefecture":"AF - ARICANDUVA/VILA FORMOSA"}},{"type":"Feature","geometry":{"type":"Point","coordinates":[-46.7641601,-23.57879262]},"properties":{"date":"2026-06-24Z","kind":"ALAGAMENTO","subprefecture":"BT - BUTANTA"}},{"type":"Feature","geometry":{"type":"Point","coordinates":[-46.7851052,-23.68197472]},"properties":{"date":"2026-06-23Z","kind":"ALAGAMENTO","subprefecture":"CL - CAMPO LIMPO"}},{"type":"Feature","geometry":{"type":"Point","coordinates":[-46.6597359,-23.45475142]},"properties":{"date":"2026-06-23Z","kind":"ALAGAMENTO","subprefecture":"CV - CASA VERDE/CACHOEIRINHA"}},{"type":"Feature","geometry":{"type":"Point","coordinates":[-46.7555476,-23.53368722]},"properties":{"date":"2026-06-24Z","kind":"ALAGAMENTO","subprefecture":"LA - LAPA"}},{"type":"Feature","geometry":{"type":"Point","coordinates":[-46.625124,-23.54694722]},"properties":{"date":"2026-06-23Z","kind":"ALAGAMENTO","subprefecture":"MO - MOOCA"}},{"type":"Feature","geometry":{"type":"Point","coordinates":[-46.5188525,-23.54729942]},"properties":{"date":"2026-06-24Z","kind":"ALAGAMENTO","subprefecture":"PE - PENHA"}},{"type":"Feature","geometry":{"type":"Point","coordinates":[-46.5364301,-23.51583992]},"properties":{"date":"2026-06-26Z","kind":"ALAGAMENTO","subprefecture":"PE - PENHA"}},{"type":"Feature","geometry":{"type":"Point","coordinates":[-46.4056331,-23.49117752]},"properties":{"date":"2026-06-24Z","kind":"ALAGAMENTO","subprefecture":"MP - SAO MIGUEL PAULISTA"}},{"type":"Feature","geometry":{"type":"Point","coordinates":[-46.4578511,-23.48612272]},"properties":{"date":"2026-06-24Z","kind":"ALAGAMENTO","subprefecture":"MP - SAO MIGUEL PAULISTA"}},{"type":"Feature","geometry":{"type":"Point","coordinates":[-46.5281715,-23.61204312]},"properties":{"date":"2026-06-23Z","kind":"ALAGAMENTO","subprefecture":"VP - VILA PRUDENTE"}},{"type":"Feature","geometry":{"type":"Point","coordinates":[-46.5264029,-23.54841322]},"properties":{"date":"2026-05-11Z","kind":"ALAGAMENTO","subprefecture":"AF - ARICANDUVA/VILA FORMOSA"}},{"type":"Feature","geometry":{"type":"Point","coordinates":[-46.6284969,-23.63469172]},"properties":{"date":"2026-02-01Z","kind":"ALAGAMENTO","subprefecture":"IP - IPIRANGA"}},{"type":"Feature","geometry":{"type":"Point","coordinates":[-46.685314,-23.71867642]},"properties":{"date":"2026-02-01Z","kind":"ALAGAMENTO","subprefecture":"CS - CAPELA DO SOCORRO"}},{"type":"Feature","geometry":{"type":"Point","coordinates":[-46.775157,-23.71321802]},"properties":{"date":"2026-02-01Z","kind":"ALAGAMENTO","subprefecture":"MB - MBOI MIRIM"}},{"type":"Feature","geometry":{"type":"Point","coordinates":[-46.6917654,-23.75760182]},"properties":{"date":"2026-02-01Z","kind":"ALAGAMENTO","subprefecture":"CS - CAPELA DO SOCORRO"}},{"type":"Feature","geometry":{"type":"Point","coordinates":[-46.4878577,-23.58034032]},"properties":{"date":"2026-02-01Z","kind":"ALAGAMENTO","subprefecture":"IQ - ITAQUERA"}},{"type":"Feature","geometry":{"type":"Point","coordinates":[-46.5289421,-23.58320842]},"properties":{"date":"2026-02-02Z","kind":"ALAGAMENTO","subprefecture":"AF - ARICANDUVA/VILA FORMOSA"}},{"type":"Feature","geometry":{"type":"Point","coordinates":[-46.6677191,-23.74125762]},"properties":{"date":"2026-02-02Z","kind":"ALAGAMENTO","subprefecture":"CS - CAPELA DO SOCORRO"}},{"type":"Feature","geometry":{"type":"Point","coordinates":[-46.4127773,-23.49109752]},"properties":{"date":"2026-02-03Z","kind":"ALAGAMENTO","subprefecture":"MP - SAO MIGUEL PAULISTA"}},{"type":"Feature","geometry":{"type":"Point","coordinates":[-46.4043464,-23.49054902]},"properties":{"date":"2026-02-03Z","kind":"ALAGAMENTO","subprefecture":"MP - SAO MIGUEL PAULISTA"}},{"type":"Feature","geometry":{"type":"Point","coordinates":[-46.4600096,-23.48394402]},"properties":{"date":"2026-02-03Z","kind":"ALAGAMENTO","subprefecture":"MP - SAO MIGUEL PAULISTA"}},{"type":"Feature","geometry":{"type":"Point","coordinates":[-46.725861,-23.59754692]},"properties":{"date":"2026-02-04Z","kind":"ALAGAMENTO","subprefecture":"BT - BUTANTA"}},{"type":"Feature","geometry":{"type":"Point","coordinates":[-46.7513819,-23.42125372]},"properties":{"date":"2026-02-05Z","kind":"ALAGAMENTO","subprefecture":"PR - PERUS"}},{"type":"Feature","geometry":{"type":"Point","coordinates":[-46.4054825,-23.49300432]},"properties":{"date":"2026-02-06Z","kind":"ALAGAMENTO","subprefecture":"MP - SAO MIGUEL PAULISTA"}},{"type":"Feature","geometry":{"type":"Point","coordinates":[-46.4056784,-23.49253962]},"properties":{"date":"2026-02-06Z","kind":"ALAGAMENTO","subprefecture":"MP - SAO MIGUEL PAULISTA"}},{"type":"Feature","geometry":{"type":"Point","coordinates":[-46.4060451,-23.49321022]},"properties":{"date":"2026-02-07Z","kind":"ALAGAMENTO","subprefecture":"MP - SAO MIGUEL PAULISTA"}},{"type":"Feature","geometry":{"type":"Point","coordinates":[-46.4058949,-23.49242272]},"properties":{"date":"2026-02-07Z","kind":"ALAGAMENTO","subprefecture":"MP - SAO MIGUEL PAULISTA"}},{"type":"Feature","geometry":{"type":"Point","coordinates":[-46.4057314,-23.49320882]},"properties":{"date":"2026-02-07Z","kind":"ALAGAMENTO","subprefecture":"MP - SAO MIGUEL PAULISTA"}},{"type":"Feature","geometry":{"type":"Point","coordinates":[-46.4058007,-23.48925422]},"properties":{"date":"2026-02-07Z","kind":"ALAGAMENTO","subprefecture":"MP - SAO MIGUEL PAULISTA"}},{"type":"Feature","geometry":{"type":"Point","coordinates":[-46.4103791,-23.48899492]},"properties":{"date":"2026-02-07Z","kind":"ALAGAMENTO","subprefecture":"MP - SAO MIGUEL PAULISTA"}},{"type":"Feature","geometry":{"type":"Point","coordinates":[-46.4126271,-23.47597052]},"properties":{"date":"2026-02-07Z","kind":"ALAGAMENTO","subprefecture":"MP - SAO MIGUEL PAULISTA"}},{"type":"Feature","geometry":{"type":"Point","coordinates":[-46.4150078,-23.48250482]},"properties":{"date":"2026-02-07Z","kind":"ALAGAMENTO","subprefecture":"MP - SAO MIGUEL PAULISTA"}},{"type":"Feature","geometry":{"type":"Point","coordinates":[-46.4267028,-23.47300882]},"properties":{"date":"2026-02-07Z","kind":"ALAGAMENTO","subprefecture":"MP - SAO MIGUEL PAULISTA"}},{"type":"Feature","geometry":{"type":"Point","coordinates":[-46.4139337,-23.47461772]},"properties":{"date":"2026-02-08Z","kind":"ALAGAMENTO","subprefecture":"MP - SAO MIGUEL PAULISTA"}},{"type":"Feature","geometry":{"type":"Point","coordinates":[-46.4082608,-23.48449212]},"properties":{"date":"2026-02-08Z","kind":"ALAGAMENTO","subprefecture":"MP - SAO MIGUEL PAULISTA"}},{"type":"Feature","geometry":{"type":"Point","coordinates":[-46.4030395,-23.48922882]},"properties":{"date":"2026-02-08Z","kind":"ALAGAMENTO","subprefecture":"MP - SAO MIGUEL PAULISTA"}},{"type":"Feature","geometry":{"type":"Point","coordinates":[-46.410238,-23.47581302]},"properties":{"date":"2026-02-08Z","kind":"ALAGAMENTO","subprefecture":"MP - SAO MIGUEL PAULISTA"}},{"type":"Feature","geometry":{"type":"Point","coordinates":[-46.4067687,-23.49118652]},"properties":{"date":"2026-02-09Z","kind":"ALAGAMENTO","subprefecture":"MP - SAO MIGUEL PAULISTA"}},{"type":"Feature","geometry":{"type":"Point","coordinates":[-46.7519581,-23.59251382]},"properties":{"date":"2026-02-18Z","kind":"ALAGAMENTO","subprefecture":"BT - BUTANTA"}},{"type":"Feature","geometry":{"type":"Point","coordinates":[-46.7618884,-23.66828492]},"properties":{"date":"2026-02-22Z","kind":"ALAGAMENTO","subprefecture":"CL - CAMPO LIMPO"}},{"type":"Feature","geometry":{"type":"Point","coordinates":[-46.761696,-23.66889242]},"properties":{"date":"2026-02-22Z","kind":"ALAGAMENTO","subprefecture":"MB - MBOI MIRIM"}},{"type":"Feature","geometry":{"type":"Point","coordinates":[-46.7040333,-23.71882192]},"properties":{"date":"2026-02-23Z","kind":"ALAGAMENTO","subprefecture":"CS - CAPELA DO SOCORRO"}},{"type":"Feature","geometry":{"type":"Point","coordinates":[-46.766457,-23.71778702]},"properties":{"date":"2026-02-24Z","kind":"ALAGAMENTO","subprefecture":"MB - MBOI MIRIM"}},{"type":"Feature","geometry":{"type":"Point","coordinates":[-46.7861641,-23.69981472]},"properties":{"date":"2026-02-25Z","kind":"ALAGAMENTO","subprefecture":"MB - MBOI MIRIM"}},{"type":"Feature","geometry":{"type":"Point","coordinates":[-46.7667216,-23.72504652]},"properties":{"date":"2026-02-26Z","kind":"ALAGAMENTO","subprefecture":"MB - MBOI MIRIM"}},{"type":"Feature","geometry":{"type":"Point","coordinates":[-46.5117177,-23.57979402]},"properties":{"date":"2026-03-08Z","kind":"ALAGAMENTO","subprefecture":"AF - Aricanduva/Vila Formosa"}},{"type":"Feature","geometry":{"type":"Point","coordinates":[-46.5518985,-23.53708462]},"properties":{"date":"2026-03-17Z","kind":"ALAGAMENTO","subprefecture":"AF - Aricanduva/Vila Formosa"}},{"type":"Feature","geometry":{"type":"Point","coordinates":[-46.5570526,-23.53937412]},"properties":{"date":"2026-03-17Z","kind":"ALAGAMENTO","subprefecture":"AF - Aricanduva/Vila Formosa"}},{"type":"Feature","geometry":{"type":"Point","coordinates":[-46.5513291,-23.53742072]},"properties":{"date":"2026-03-17Z","kind":"ALAGAMENTO","subprefecture":"AF - Aricanduva/Vila Formosa"}},{"type":"Feature","geometry":{"type":"Point","coordinates":[-46.5520858,-23.53719502]},"properties":{"date":"2026-03-17Z","kind":"ALAGAMENTO","subprefecture":"AF - Aricanduva/Vila Formosa"}},{"type":"Feature","geometry":{"type":"Point","coordinates":[-46.5472781,-23.55025872]},"properties":{"date":"2026-03-17Z","kind":"ALAGAMENTO","subprefecture":"AF - Aricanduva/Vila Formosa"}},{"type":"Feature","geometry":{"type":"Point","coordinates":[-46.5529506,-23.53674522]},"properties":{"date":"2026-03-26Z","kind":"ALAGAMENTO","subprefecture":"AF - Aricanduva/Vila Formosa"}},{"type":"Feature","geometry":{"type":"Point","coordinates":[-46.7458079,-23.57281682]},"properties":{"date":"2026-03-06Z","kind":"ALAGAMENTO","subprefecture":"BT - Butanta"}},{"type":"Feature","geometry":{"type":"Point","coordinates":[-46.785398,-23.59465502]},"properties":{"date":"2026-03-26Z","kind":"ALAGAMENTO","subprefecture":"BT - Butanta"}},{"type":"Feature","geometry":{"type":"Point","coordinates":[-46.784714,-23.66361112]},"properties":{"date":"2026-03-06Z","kind":"ALAGAMENTO","subprefecture":"CL - Campo Limpo"}},{"type":"Feature","geometry":{"type":"Point","coordinates":[-46.784932,-23.66062632]},"properties":{"date":"2026-03-06Z","kind":"ALAGAMENTO","subprefecture":"CL - Campo Limpo"}},{"type":"Feature","geometry":{"type":"Point","coordinates":[-46.7648251,-23.64158202]},"properties":{"date":"2026-03-06Z","kind":"ALAGAMENTO","subprefecture":"CL - Campo Limpo"}},{"type":"Feature","geometry":{"type":"Point","coordinates":[-46.7470546,-23.62397692]},"properties":{"date":"2026-03-06Z","kind":"ALAGAMENTO","subprefecture":"CL - Campo Limpo"}},{"type":"Feature","geometry":{"type":"Point","coordinates":[-46.7696176,-23.64777532]},"properties":{"date":"2026-03-09Z","kind":"ALAGAMENTO","subprefecture":"CL - Campo Limpo"}},{"type":"Feature","geometry":{"type":"Point","coordinates":[-46.7732446,-23.65089092]},"properties":{"date":"2026-03-10Z","kind":"ALAGAMENTO","subprefecture":"CL - Campo Limpo"}},{"type":"Feature","geometry":{"type":"Point","coordinates":[-46.705497,-23.73046792]},"properties":{"date":"2026-03-07Z","kind":"ALAGAMENTO","subprefecture":"CS - Capela do Socorro"}},{"type":"Feature","geometry":{"type":"Point","coordinates":[-46.4922035,-23.48230062]},"properties":{"date":"2026-03-06Z","kind":"ALAGAMENTO","subprefecture":"EM - Ermelino Matarazzo"}},{"type":"Feature","geometry":{"type":"Point","coordinates":[-46.5014646,-23.47950842]},"properties":{"date":"2026-03-06Z","kind":"ALAGAMENTO","subprefecture":"EM - Ermelino Matarazzo"}},{"type":"Feature","geometry":{"type":"Point","coordinates":[-46.6297249,-23.63624982]},"properties":{"date":"2026-03-08Z","kind":"ALAGAMENTO","subprefecture":"IP - Ipiranga"}},{"type":"Feature","geometry":{"type":"Point","coordinates":[-46.6194383,-23.63219522]},"properties":{"date":"2026-03-08Z","kind":"ALAGAMENTO","subprefecture":"IP - Ipiranga"}},{"type":"Feature","geometry":{"type":"Point","coordinates":[-46.6264531,-23.61297992]},"properties":{"date":"2026-03-08Z","kind":"ALAGAMENTO","subprefecture":"IP - Ipiranga"}},{"type":"Feature","geometry":{"type":"Point","coordinates":[-46.6219958,-23.62977522]},"properties":{"date":"2026-03-10Z","kind":"ALAGAMENTO","subprefecture":"IP - Ipiranga"}},{"type":"Feature","geometry":{"type":"Point","coordinates":[-46.6099896,-23.62871922]},"properties":{"date":"2026-03-10Z","kind":"ALAGAMENTO","subprefecture":"IP - Ipiranga"}},{"type":"Feature","geometry":{"type":"Point","coordinates":[-46.6262723,-23.62366022]},"properties":{"date":"2026-03-10Z","kind":"ALAGAMENTO","subprefecture":"IP - Ipiranga"}},{"type":"Feature","geometry":{"type":"Point","coordinates":[-46.4701393,-23.55605862]},"properties":{"date":"2026-03-08Z","kind":"ALAGAMENTO","subprefecture":"IQ - Itaquera"}},{"type":"Feature","geometry":{"type":"Point","coordinates":[-46.6544687,-23.65617742]},"properties":{"date":"2026-03-06Z","kind":"ALAGAMENTO","subprefecture":"JA - Jabaquara"}},{"type":"Feature","geometry":{"type":"Point","coordinates":[-46.6580282,-23.64298622]},"properties":{"date":"2026-03-08Z","kind":"ALAGAMENTO","subprefecture":"JA - Jabaquara"}},{"type":"Feature","geometry":{"type":"Point","coordinates":[-46.7561902,-23.65828012]},"properties":{"date":"2026-03-06Z","kind":"ALAGAMENTO","subprefecture":"MB - MBoi Mirim"}},{"type":"Feature","geometry":{"type":"Point","coordinates":[-46.7461467,-23.68395202]},"properties":{"date":"2026-03-07Z","kind":"ALAGAMENTO","subprefecture":"MB - MBoi Mirim"}},{"type":"Feature","geometry":{"type":"Point","coordinates":[-46.7459195,-23.68445162]},"properties":{"date":"2026-03-11Z","kind":"ALAGAMENTO","subprefecture":"MB - MBoi Mirim"}},{"type":"Feature","geometry":{"type":"Point","coordinates":[-46.7465605,-23.68397402]},"properties":{"date":"2026-03-19Z","kind":"ALAGAMENTO","subprefecture":"MB - MBoi Mirim"}},{"type":"Feature","geometry":{"type":"Point","coordinates":[-46.7541055,-23.48757412]},"properties":{"date":"2026-03-08Z","kind":"ALAGAMENTO","subprefecture":"PJ - Pirituba/Jaragua"}},{"type":"Feature","geometry":{"type":"Point","coordinates":[-46.6230075,-23.48077522]},"properties":{"date":"2026-03-13Z","kind":"ALAGAMENTO","subprefecture":"ST - Santana/Tucuruvi"}},{"type":"Feature","geometry":{"type":"Point","coordinates":[-46.6514498,-23.63928792]},"properties":{"date":"2026-03-08Z","kind":"ALAGAMENTO","subprefecture":"SA - Santo Amaro"}},{"type":"Feature","geometry":{"type":"Point","coordinates":[-46.6582313,-23.64195792]},"properties":{"date":"2026-03-08Z","kind":"ALAGAMENTO","subprefecture":"SA - Santo Amaro"}},{"type":"Feature","geometry":{"type":"Point","coordinates":[-46.6556716,-23.63396522]},"properties":{"date":"2026-03-09Z","kind":"ALAGAMENTO","subprefecture":"SA - Santo Amaro"}},{"type":"Feature","geometry":{"type":"Point","coordinates":[-46.4045854,-23.48912462]},"properties":{"date":"2026-03-03Z","kind":"ALAGAMENTO","subprefecture":"MP - Sao Miguel Paulista"}},{"type":"Feature","geometry":{"type":"Point","coordinates":[-46.4072941,-23.49121132]},"properties":{"date":"2026-03-06Z","kind":"ALAGAMENTO","subprefecture":"MP - Sao Miguel Paulista"}},{"type":"Feature","geometry":{"type":"Point","coordinates":[-46.4056784,-23.49253962]},"properties":{"date":"2026-03-06Z","kind":"ALAGAMENTO","subprefecture":"MP - Sao Miguel Paulista"}},{"type":"Feature","geometry":{"type":"Point","coordinates":[-46.4057871,-23.49170612]},"properties":{"date":"2026-03-06Z","kind":"ALAGAMENTO","subprefecture":"MP - Sao Miguel Paulista"}},{"type":"Feature","geometry":{"type":"Point","coordinates":[-46.4043464,-23.49054902]},"properties":{"date":"2026-03-06Z","kind":"ALAGAMENTO","subprefecture":"MP - Sao Miguel Paulista"}},{"type":"Feature","geometry":{"type":"Point","coordinates":[-46.4498595,-23.48817452]},"properties":{"date":"2026-03-06Z","kind":"ALAGAMENTO","subprefecture":"MP - Sao Miguel Paulista"}},{"type":"Feature","geometry":{"type":"Point","coordinates":[-46.4059539,-23.49133852]},"properties":{"date":"2026-03-12Z","kind":"ALAGAMENTO","subprefecture":"MP - Sao Miguel Paulista"}},{"type":"Feature","geometry":{"type":"Point","coordinates":[-46.6398143,-23.54245322]},"properties":{"date":"2026-03-08Z","kind":"ALAGAMENTO","subprefecture":"SE - Se"}},{"type":"Feature","geometry":{"type":"Point","coordinates":[-46.6681546,-23.61438942]},"properties":{"date":"2026-03-08Z","kind":"ALAGAMENTO","subprefecture":"VM - Vila Mariana"}},{"type":"Feature","geometry":{"type":"Point","coordinates":[-46.6293151,-23.61899592]},"properties":{"date":"2026-03-12Z","kind":"ALAGAMENTO","subprefecture":"VM - Vila Mariana"}},{"type":"Feature","geometry":{"type":"Point","coordinates":[-46.5289052,-23.61241602]},"properties":{"date":"2026-03-09Z","kind":"ALAGAMENTO","subprefecture":"VP - Vila Prudente"}},{"type":"Feature","geometry":{"type":"Point","coordinates":[-46.522857,-23.61375182]},"properties":{"date":"2026-03-09Z","kind":"ALAGAMENTO","subprefecture":"VP - Vila Prudente"}},{"type":"Feature","geometry":{"type":"Point","coordinates":[-46.702602,-23.81965702]},"properties":{"date":"2026-01-04Z","kind":"ALAGAMENTO","subprefecture":"PA - PARELHEIROS"}},{"type":"Feature","geometry":{"type":"Point","coordinates":[-46.702602,-23.81965592]},"properties":{"date":"2026-01-05Z","kind":"ALAGAMENTO","subprefecture":"PA - PARELHEIROS"}},{"type":"Feature","geometry":{"type":"Point","coordinates":[-46.7026273,-23.81949962]},"properties":{"date":"2026-01-05Z","kind":"ALAGAMENTO","subprefecture":"PA - PARELHEIROS"}},{"type":"Feature","geometry":{"type":"Point","coordinates":[-46.77596,-23.74080782]},"properties":{"date":"2026-01-08Z","kind":"ALAGAMENTO","subprefecture":"MB - MBOI MIRIM"}},{"type":"Feature","geometry":{"type":"Point","coordinates":[-46.4141499,-23.58583052]},"properties":{"date":"2026-01-08Z","kind":"ALAGAMENTO","subprefecture":"CT - CIDADE TIRADENTES"}},{"type":"Feature","geometry":{"type":"Point","coordinates":[-46.4043464,-23.49054902]},"properties":{"date":"2026-01-08Z","kind":"ALAGAMENTO","subprefecture":"MP - SAO MIGUEL PAULISTA"}},{"type":"Feature","geometry":{"type":"Point","coordinates":[-46.4072941,-23.49121132]},"properties":{"date":"2026-01-08Z","kind":"ALAGAMENTO","subprefecture":"MP - SAO MIGUEL PAULISTA"}},{"type":"Feature","geometry":{"type":"Point","coordinates":[-46.703126,-23.81919402]},"properties":{"date":"2026-01-10Z","kind":"ALAGAMENTO","subprefecture":"PA - PARELHEIROS"}},{"type":"Feature","geometry":{"type":"Point","coordinates":[-46.5530214,-23.52774802]},"properties":{"date":"2026-01-13Z","kind":"ALAGAMENTO","subprefecture":"PE - PENHA"}},{"type":"Feature","geometry":{"type":"Point","coordinates":[-46.547165,-23.55011102]},"properties":{"date":"2026-01-14Z","kind":"ALAGAMENTO","subprefecture":"AF - ARICANDUVA/VILA FORMOSA"}},{"type":"Feature","geometry":{"type":"Point","coordinates":[-46.6530307,-23.52453672]},"properties":{"date":"2026-01-14Z","kind":"ALAGAMENTO","subprefecture":"SE - SE"}},{"type":"Feature","geometry":{"type":"Point","coordinates":[-46.5519163,-23.53675742]},"properties":{"date":"2026-01-14Z","kind":"ALAGAMENTO","subprefecture":"AF - ARICANDUVA/VILA FORMOSA"}},{"type":"Feature","geometry":{"type":"Point","coordinates":[-46.4116651,-23.49101812]},"properties":{"date":"2026-01-14Z","kind":"ALAGAMENTO","subprefecture":"MP - SAO MIGUEL PAULISTA"}},{"type":"Feature","geometry":{"type":"Point","coordinates":[-46.4049915,-23.49196792]},"properties":{"date":"2026-01-14Z","kind":"ALAGAMENTO","subprefecture":"MP - SAO MIGUEL PAULISTA"}},{"type":"Feature","geometry":{"type":"Point","coordinates":[-46.4612224,-23.48785282]},"properties":{"date":"2026-01-14Z","kind":"ALAGAMENTO","subprefecture":"MP - SAO MIGUEL PAULISTA"}},{"type":"Feature","geometry":{"type":"Point","coordinates":[-46.7606843,-23.67124652]},"properties":{"date":"2026-01-15Z","kind":"ALAGAMENTO","subprefecture":"MB - MBOI MIRIM"}},{"type":"Feature","geometry":{"type":"Point","coordinates":[-46.4127773,-23.49109752]},"properties":{"date":"2026-01-15Z","kind":"ALAGAMENTO","subprefecture":"MP - SAO MIGUEL PAULISTA"}},{"type":"Feature","geometry":{"type":"Point","coordinates":[-46.5302385,-23.61376082]},"properties":{"date":"2026-01-15Z","kind":"ALAGAMENTO","subprefecture":"VP - VILA PRUDENTE"}},{"type":"Feature","geometry":{"type":"Point","coordinates":[-46.5308269,-23.61412092]},"properties":{"date":"2026-01-15Z","kind":"ALAGAMENTO","subprefecture":"VP - VILA PRUDENTE"}},{"type":"Feature","geometry":{"type":"Point","coordinates":[-46.4905436,-23.61957022]},"properties":{"date":"2026-01-15Z","kind":"ALAGAMENTO","subprefecture":"SB - SAPOPEMBA"}},{"type":"Feature","geometry":{"type":"Point","coordinates":[-46.5310206,-23.61254112]},"properties":{"date":"2026-01-15Z","kind":"ALAGAMENTO","subprefecture":"VP - VILA PRUDENTE"}},{"type":"Feature","geometry":{"type":"Point","coordinates":[-46.5259184,-23.61270402]},"properties":{"date":"2026-01-15Z","kind":"ALAGAMENTO","subprefecture":"VP - VILA PRUDENTE"}},{"type":"Feature","geometry":{"type":"Point","coordinates":[-46.528241,-23.61293902]},"properties":{"date":"2026-01-15Z","kind":"ALAGAMENTO","subprefecture":"VP - VILA PRUDENTE"}},{"type":"Feature","geometry":{"type":"Point","coordinates":[-46.531546,-23.61228362]},"properties":{"date":"2026-01-15Z","kind":"ALAGAMENTO","subprefecture":"VP - VILA PRUDENTE"}},{"type":"Feature","geometry":{"type":"Point","coordinates":[-46.758482,-23.66115402]},"properties":{"date":"2026-01-15Z","kind":"ALAGAMENTO","subprefecture":"MB - MBOI MIRIM"}},{"type":"Feature","geometry":{"type":"Point","coordinates":[-46.5256807,-23.58607752]},"properties":{"date":"2026-01-15Z","kind":"ALAGAMENTO","subprefecture":"SB - SAPOPEMBA"}},{"type":"Feature","geometry":{"type":"Point","coordinates":[-46.7575756,-23.66084172]},"properties":{"date":"2026-01-16Z","kind":"ALAGAMENTO","subprefecture":"MB - MBOI MIRIM"}},{"type":"Feature","geometry":{"type":"Point","coordinates":[-46.5266996,-23.58552282]},"properties":{"date":"2026-01-16Z","kind":"ALAGAMENTO","subprefecture":"SB - SAPOPEMBA"}},{"type":"Feature","geometry":{"type":"Point","coordinates":[-46.7326203,-23.79060142]},"properties":{"date":"2026-01-16Z","kind":"ALAGAMENTO","subprefecture":"PA - PARELHEIROS"}},{"type":"Feature","geometry":{"type":"Point","coordinates":[-46.7569187,-23.72657792]},"properties":{"date":"2026-01-16Z","kind":"ALAGAMENTO","subprefecture":"MB - MBOI MIRIM"}},{"type":"Feature","geometry":{"type":"Point","coordinates":[-46.7458796,-23.68454532]},"properties":{"date":"2026-01-16Z","kind":"ALAGAMENTO","subprefecture":"MB - MBOI MIRIM"}},{"type":"Feature","geometry":{"type":"Point","coordinates":[-46.5460187,-23.53019502]},"properties":{"date":"2026-01-16Z","kind":"ALAGAMENTO","subprefecture":"PE - PENHA"}},{"type":"Feature","geometry":{"type":"Point","coordinates":[-46.7579321,-23.66049452]},"properties":{"date":"2026-01-16Z","kind":"ALAGAMENTO","subprefecture":"CL - CAMPO LIMPO"}},{"type":"Feature","geometry":{"type":"Point","coordinates":[-46.7407365,-23.63969422]},"properties":{"date":"2026-01-16Z","kind":"ALAGAMENTO","subprefecture":"CL - CAMPO LIMPO"}},{"type":"Feature","geometry":{"type":"Point","coordinates":[-46.7415988,-23.63470662]},"properties":{"date":"2026-01-16Z","kind":"ALAGAMENTO","subprefecture":"CL - CAMPO LIMPO"}},{"type":"Feature","geometry":{"type":"Point","coordinates":[-46.7622554,-23.66862182]},"properties":{"date":"2026-01-16Z","kind":"ALAGAMENTO","subprefecture":"CL - CAMPO LIMPO"}},{"type":"Feature","geometry":{"type":"Point","coordinates":[-46.7859278,-23.67990622]},"properties":{"date":"2026-01-16Z","kind":"ALAGAMENTO","subprefecture":"CL - CAMPO LIMPO"}},{"type":"Feature","geometry":{"type":"Point","coordinates":[-46.652503,-23.45500792]},"properties":{"date":"2026-01-16Z","kind":"ALAGAMENTO","subprefecture":"CV - CASA VERDE/CACHOEIRINHA"}},{"type":"Feature","geometry":{"type":"Point","coordinates":[-46.7850208,-23.66508282]},"properties":{"date":"2026-01-17Z","kind":"ALAGAMENTO","subprefecture":"CL - CAMPO LIMPO"}},{"type":"Feature","geometry":{"type":"Point","coordinates":[-46.6510769,-23.65073682]},"properties":{"date":"2026-01-17Z","kind":"ALAGAMENTO","subprefecture":"JA - JABAQUARA"}},{"type":"Feature","geometry":{"type":"Point","coordinates":[-46.6870599,-23.77394342]},"properties":{"date":"2026-01-17Z","kind":"ALAGAMENTO","subprefecture":"CS - CAPELA DO SOCORRO"}},{"type":"Feature","geometry":{"type":"Point","coordinates":[-46.5304478,-23.61372482]},"properties":{"date":"2026-01-17Z","kind":"ALAGAMENTO","subprefecture":"VP - VILA PRUDENTE"}},{"type":"Feature","geometry":{"type":"Point","coordinates":[-46.530615,-23.61402152]},"properties":{"date":"2026-01-17Z","kind":"ALAGAMENTO","subprefecture":"VP - VILA PRUDENTE"}},{"type":"Feature","geometry":{"type":"Point","coordinates":[-46.5292511,-23.61366732]},"properties":{"date":"2026-01-17Z","kind":"ALAGAMENTO","subprefecture":"VP - VILA PRUDENTE"}},{"type":"Feature","geometry":{"type":"Point","coordinates":[-46.6500054,-23.65156322]},"properties":{"date":"2026-01-17Z","kind":"ALAGAMENTO","subprefecture":"JA - JABAQUARA"}},{"type":"Feature","geometry":{"type":"Point","coordinates":[-46.4056276,-23.49117712]},"properties":{"date":"2026-01-18Z","kind":"ALAGAMENTO","subprefecture":"MP - SAO MIGUEL PAULISTA"}},{"type":"Feature","geometry":{"type":"Point","coordinates":[-46.7868783,-23.68017942]},"properties":{"date":"2026-01-19Z","kind":"ALAGAMENTO","subprefecture":"CL - CAMPO LIMPO"}},{"type":"Feature","geometry":{"type":"Point","coordinates":[-46.5299053,-23.61367012]},"properties":{"date":"2026-01-19Z","kind":"ALAGAMENTO","subprefecture":"VP - VILA PRUDENTE"}},{"type":"Feature","geometry":{"type":"Point","coordinates":[-46.7914272,-23.65199832]},"properties":{"date":"2026-01-19Z","kind":"ALAGAMENTO","subprefecture":"CL - CAMPO LIMPO"}},{"type":"Feature","geometry":{"type":"Point","coordinates":[-46.7538921,-23.65466312]},"properties":{"date":"2026-01-19Z","kind":"ALAGAMENTO","subprefecture":"MB - MBOI MIRIM"}},{"type":"Feature","geometry":{"type":"Point","coordinates":[-46.6651991,-23.75556422]},"properties":{"date":"2026-01-19Z","kind":"ALAGAMENTO","subprefecture":"PA - PARELHEIROS"}},{"type":"Feature","geometry":{"type":"Point","coordinates":[-46.687885,-23.77235722]},"properties":{"date":"2026-01-19Z","kind":"ALAGAMENTO","subprefecture":"CS - CAPELA DO SOCORRO"}},{"type":"Feature","geometry":{"type":"Point","coordinates":[-46.7804194,-23.64938432]},"properties":{"date":"2026-01-19Z","kind":"ALAGAMENTO","subprefecture":"CL - CAMPO LIMPO"}},{"type":"Feature","geometry":{"type":"Point","coordinates":[-46.4099511,-23.54950812]},"properties":{"date":"2026-01-20Z","kind":"ALAGAMENTO","subprefecture":"G - GUAIANASES"}},{"type":"Feature","geometry":{"type":"Point","coordinates":[-46.7845634,-23.67799952]},"properties":{"date":"2026-01-20Z","kind":"ALAGAMENTO","subprefecture":"CL - CAMPO LIMPO"}},{"type":"Feature","geometry":{"type":"Point","coordinates":[-46.7868783,-23.68017942]},"properties":{"date":"2026-01-22Z","kind":"ALAGAMENTO","subprefecture":"CL - CAMPO LIMPO"}},{"type":"Feature","geometry":{"type":"Point","coordinates":[-46.6085003,-23.48748882]},"properties":{"date":"2026-01-25Z","kind":"ALAGAMENTO","subprefecture":"ST - SANTANA/TUCURUVI"}},{"type":"Feature","geometry":{"type":"Point","coordinates":[-46.563155,-23.50846042]},"properties":{"date":"2026-01-25Z","kind":"ALAGAMENTO","subprefecture":"MG - VILA MARIA/VILA GUILHERME"}},{"type":"Feature","geometry":{"type":"Point","coordinates":[-46.4052223,-23.49145322]},"properties":{"date":"2026-01-26Z","kind":"ALAGAMENTO","subprefecture":"MP - SAO MIGUEL PAULISTA"}},{"type":"Feature","geometry":{"type":"Point","coordinates":[-46.4052594,-23.48982502]},"properties":{"date":"2026-01-26Z","kind":"ALAGAMENTO","subprefecture":"MP - SAO MIGUEL PAULISTA"}},{"type":"Feature","geometry":{"type":"Point","coordinates":[-46.5518985,-23.53708462]},"properties":{"date":"2026-01-26Z","kind":"ALAGAMENTO","subprefecture":"AF - ARICANDUVA/VILA FORMOSA"}},{"type":"Feature","geometry":{"type":"Point","coordinates":[-46.5519163,-23.53675742]},"properties":{"date":"2026-01-26Z","kind":"ALAGAMENTO","subprefecture":"AF - ARICANDUVA/VILA FORMOSA"}},{"type":"Feature","geometry":{"type":"Point","coordinates":[-46.547165,-23.55011102]},"properties":{"date":"2026-01-26Z","kind":"ALAGAMENTO","subprefecture":"AF - ARICANDUVA/VILA FORMOSA"}},{"type":"Feature","geometry":{"type":"Point","coordinates":[-46.5765938,-23.45520722]},"properties":{"date":"2026-01-27Z","kind":"ALAGAMENTO","subprefecture":"JT - JACANA/TREMEMBE"}},{"type":"Feature","geometry":{"type":"Point","coordinates":[-46.5764996,-23.45510572]},"properties":{"date":"2026-01-27Z","kind":"ALAGAMENTO","subprefecture":"JT - JACANA/TREMEMBE"}},{"type":"Feature","geometry":{"type":"Point","coordinates":[-46.5767743,-23.45535802]},"properties":{"date":"2026-01-27Z","kind":"ALAGAMENTO","subprefecture":"JT - JACANA/TREMEMBE"}},{"type":"Feature","geometry":{"type":"Point","coordinates":[-46.5768535,-23.45561142]},"properties":{"date":"2026-01-27Z","kind":"ALAGAMENTO","subprefecture":"JT - JACANA/TREMEMBE"}},{"type":"Feature","geometry":{"type":"Point","coordinates":[-46.5767611,-23.45632632]},"properties":{"date":"2026-01-27Z","kind":"ALAGAMENTO","subprefecture":"JT - JACANA/TREMEMBE"}},{"type":"Feature","geometry":{"type":"Point","coordinates":[-46.577795,-23.45646192]},"properties":{"date":"2026-01-27Z","kind":"ALAGAMENTO","subprefecture":"JT - JACANA/TREMEMBE"}},{"type":"Feature","geometry":{"type":"Point","coordinates":[-46.7457997,-23.57281342]},"properties":{"date":"2026-01-27Z","kind":"ALAGAMENTO","subprefecture":"BT - BUTANTA"}},{"type":"Feature","geometry":{"type":"Point","coordinates":[-46.6657008,-23.57883342]},"properties":{"date":"2026-01-27Z","kind":"ALAGAMENTO","subprefecture":"PI - PINHEIROS"}},{"type":"Feature","geometry":{"type":"Point","coordinates":[-46.742994,-23.56760802]},"properties":{"date":"2026-01-27Z","kind":"ALAGAMENTO","subprefecture":"BT - BUTANTA"}},{"type":"Feature","geometry":{"type":"Point","coordinates":[-46.4051695,-23.49008502]},"properties":{"date":"2026-01-27Z","kind":"ALAGAMENTO","subprefecture":"MP - SAO MIGUEL PAULISTA"}},{"type":"Feature","geometry":{"type":"Point","coordinates":[-46.6102304,-23.47321742]},"properties":{"date":"2026-01-28Z","kind":"ALAGAMENTO","subprefecture":"ST - SANTANA/TUCURUVI"}},{"type":"Feature","geometry":{"type":"Point","coordinates":[-46.4057871,-23.49170612]},"properties":{"date":"2026-01-28Z","kind":"ALAGAMENTO","subprefecture":"MP - SAO MIGUEL PAULISTA"}},{"type":"Feature","geometry":{"type":"Point","coordinates":[-46.4056784,-23.49253962]},"properties":{"date":"2026-01-28Z","kind":"ALAGAMENTO","subprefecture":"MP - SAO MIGUEL PAULISTA"}},{"type":"Feature","geometry":{"type":"Point","coordinates":[-46.4054825,-23.49300432]},"properties":{"date":"2026-01-28Z","kind":"ALAGAMENTO","subprefecture":"MP - SAO MIGUEL PAULISTA"}},{"type":"Feature","geometry":{"type":"Point","coordinates":[-46.4072941,-23.49121132]},"properties":{"date":"2026-01-28Z","kind":"ALAGAMENTO","subprefecture":"MP - SAO MIGUEL PAULISTA"}},{"type":"Feature","geometry":{"type":"Point","coordinates":[-46.3930816,-23.49569532]},"properties":{"date":"2026-01-28Z","kind":"ALAGAMENTO","subprefecture":"IT - ITAIM PAULISTA"}},{"type":"Feature","geometry":{"type":"Point","coordinates":[-46.3970675,-23.49109262]},"properties":{"date":"2026-01-28Z","kind":"ALAGAMENTO","subprefecture":"MP - SAO MIGUEL PAULISTA"}},{"type":"Feature","geometry":{"type":"Point","coordinates":[-46.3878633,-23.49227712]},"properties":{"date":"2026-01-28Z","kind":"ALAGAMENTO","subprefecture":"IT - ITAIM PAULISTA"}},{"type":"Feature","geometry":{"type":"Point","coordinates":[-46.3840574,-23.49521342]},"properties":{"date":"2026-01-28Z","kind":"ALAGAMENTO","subprefecture":"IT - ITAIM PAULISTA"}},{"type":"Feature","geometry":{"type":"Point","coordinates":[-46.3866774,-23.49165632]},"properties":{"date":"2026-01-28Z","kind":"ALAGAMENTO","subprefecture":"IT - ITAIM PAULISTA"}},{"type":"Feature","geometry":{"type":"Point","coordinates":[-46.3862004,-23.49385542]},"properties":{"date":"2026-01-28Z","kind":"ALAGAMENTO","subprefecture":"IT - ITAIM PAULISTA"}},{"type":"Feature","geometry":{"type":"Point","coordinates":[-46.3862358,-23.49374612]},"properties":{"date":"2026-01-28Z","kind":"ALAGAMENTO","subprefecture":"IT - ITAIM PAULISTA"}},{"type":"Feature","geometry":{"type":"Point","coordinates":[-46.3982521,-23.49105092]},"properties":{"date":"2026-01-28Z","kind":"ALAGAMENTO","subprefecture":"MP - SAO MIGUEL PAULISTA"}},{"type":"Feature","geometry":{"type":"Point","coordinates":[-46.3982879,-23.49010332]},"properties":{"date":"2026-01-28Z","kind":"ALAGAMENTO","subprefecture":"MP - SAO MIGUEL PAULISTA"}},{"type":"Feature","geometry":{"type":"Point","coordinates":[-46.3961662,-23.49261752]},"properties":{"date":"2026-01-28Z","kind":"ALAGAMENTO","subprefecture":"MP - SAO MIGUEL PAULISTA"}},{"type":"Feature","geometry":{"type":"Point","coordinates":[-46.3910139,-23.49617212]},"properties":{"date":"2026-01-29Z","kind":"ALAGAMENTO","subprefecture":"IT - ITAIM PAULISTA"}},{"type":"Feature","geometry":{"type":"Point","coordinates":[-46.3862232,-23.50878562]},"properties":{"date":"2026-01-29Z","kind":"ALAGAMENTO","subprefecture":"IT - ITAIM PAULISTA"}},{"type":"Feature","geometry":{"type":"Point","coordinates":[-46.3957229,-23.49075532]},"properties":{"date":"2026-01-29Z","kind":"ALAGAMENTO","subprefecture":"MP - SAO MIGUEL PAULISTA"}},{"type":"Feature","geometry":{"type":"Point","coordinates":[-46.3969826,-23.49032492]},"properties":{"date":"2026-01-29Z","kind":"ALAGAMENTO","subprefecture":"MP - SAO MIGUEL PAULISTA"}},{"type":"Feature","geometry":{"type":"Point","coordinates":[-46.3958988,-23.49162552]},"properties":{"date":"2026-01-29Z","kind":"ALAGAMENTO","subprefecture":"MP - SAO MIGUEL PAULISTA"}},{"type":"Feature","geometry":{"type":"Point","coordinates":[-46.4059935,-23.49149942]},"properties":{"date":"2026-01-30Z","kind":"ALAGAMENTO","subprefecture":"MP - SAO MIGUEL PAULISTA"}}]}
